*******************************************************************************
 Revised: July 31, 2013                  Sun                                 10

 PHYSICAL PROPERTIES (updated 2024-Mar-04):
  GM, km^3/s^2          = 132712440041.93938  Mass, 10^24 kg        = ~1988500
  Vol. mean radius, km  = 695700              Volume, 10^12 km^3    = 1412000
  Solar radius (IAU2015)= 695700 km           Mean density, g/cm^3  = 1.408
  Radius (photosphere)  = 696500 km           Angular diam at 1 AU  = 1919.3"
  Photosphere temp., K  = 6600 (bottom)       Photosphere temp., K  = 4400(top)
  Photospheric depth    = ~500 km             Chromospheric depth   = ~2500 km
  Flatness, f           = 0.00005             Adopted sid. rot. per.= 25.38 d
  Surface gravity       =  274.0 m/s^2        Escape speed, km/s    =  617.7
  Pole (RA,DEC), deg.   = (286.13, 63.87)     Obliquity to ecliptic = 7.25 deg.
  Solar constant (1 AU) = 1367.6 W/m^2        Luminosity, 10^24 J/s = 382.8
  Mass-energy conv rate = 4.260 x 10^9 kg/s   Effective temp, K     = 5772
  Sunspot cycle         = 11.4 yr             Cycle 24 sunspot min. = 2008 A.D.

  Motion relative to nearby stars = apex : R.A.= 271 deg.; DEC.= +30 deg.
                                    speed: 19.4 km/s (0.0112 au/day)
  Motion relative to 2.73K BB/CBR = apex : l= 264.7 +- 0.8; b= 48.2 +- 0.5 deg.
                                    speed: 369 +-11 km/s
*******************************************************************************


*******************************************************************************
Ephemeris / WWW_USER Tue Oct  1 11:24:52 2024 Pasadena, USA      / Horizons
*******************************************************************************
Target body name: Sun (10)                        {source: DE441}
Center body name: Solar System Barycenter (0)     {source: DE441}
Center-site name: BODY CENTER
*******************************************************************************
Start time      : A.D. 2023-Apr-10 00:00:00.0000 UT 
Stop  time      : A.D. 2023-Apr-10 00:00:00.0000 UT 
Step-size       : DISCRETE TIME-LIST
*******************************************************************************
Center geodetic : 0.0, 0.0, 0.0                   {E-lon(deg),Lat(deg),Alt(km)}
Center cylindric: 0.0, 0.0, 0.0                   {E-lon(deg),Dxy(km),Dz(km)}
Center radii    : (undefined)
Output units    : KM-S
Calendar mode   : Mixed Julian/Gregorian
Output type     : GEOMETRIC cartesian states
Output format   : 3 (position, velocity, LT, range, range-rate)
EOP file        : eop.240930.p241224
EOP coverage    : DATA-BASED 1962-JAN-20 TO 2024-SEP-30. PREDICTS-> 2024-DEC-23
Reference frame : Ecliptic of J2000.0
*******************************************************************************
JDUT 
   X     Y     Z
   VX    VY    VZ
   LT    RG    RR
*******************************************************************************
$$SOE
2460044.500000000 = A.D. 2023-Apr-10 00:00:00.0000 UTC 
 X =-1.331624504177478E+06 Y =-1.165244212884209E+05 Z = 3.196469839393578E+04
 VX= 3.665183297684995E-03 VY=-1.489960431150986E-02 VZ= 3.629942522655628E-05
 LT= 4.460069417210059E+00 RG= 1.337095173436031E+06 RR=-2.350857204440690E-03
$$EOE
*******************************************************************************
 
TIME

 Times PRIOR to 1962 are UT1, a mean-solar time closely related to the
prior but now-deprecated GMT. Times AFTER 1962 are in UTC, the current
civil or "wall-clock" atomic time-scale. UTC is kept within 0.9 seconds
of UT1 using integer leap-seconds for 1972 and later years.

  Conversion from the internal Barycentric Dynamical Time (TDB) of solar
system dynamics to the discontinuous civil UT time-scale has not been
determined for UTC times after the next July or January 1st. Therefore,
the last known leap-second is used as a constant over future intervals,
a condition noted here as "UT~".

  Future but as yet undetermined leap-seconds can be expected to change
time-tags in the "UT~" interval and, in general, the UT scale may not be
suitable for purposes that assume time-tag continuity in the ephemeris.
Output in continuous TDB and TT timescales may instead be requested,
though these are not linked to Earth's rotation.

  Time-tags refer to the UT time-scale conversion from TDB on Earth
regardless of observer location within the solar system, although clock
rates may differ due to the local gravity field and no analog to "UT"
may be defined for that location.
 
CALENDAR SYSTEM

  Mixed calendar mode was active such that calendar dates after AD 1582-Oct-15
(if any) are in the modern Gregorian system. Dates prior to 1582-Oct-5 (if any)
are in the Julian calendar system, which is automatically extended for dates
prior to its adoption on 45-Jan-1 BC.  The Julian calendar is useful for
matching historical dates. The Gregorian calendar more accurately corresponds
to the Earth's orbital motion and seasons. A "Gregorian-only" calendar mode is
available if such physical events are the primary interest.

REFERENCE FRAME AND COORDINATES

  Ecliptic at the standard reference epoch

    Reference epoch: J2000.0
    X-Y plane: adopted Earth orbital plane at the reference epoch
               Note: IAU76 obliquity of 84381.448 arcseconds wrt ICRF X-Y plane
    X-axis   : ICRF
    Z-axis   : perpendicular to the X-Y plane in the directional (+ or -) sense
               of Earth's north pole at the reference epoch.

  Symbol meaning:

    JDUT     Julian Day Number, Universal Time
      X      X-component of position vector (km)
      Y      Y-component of position vector (km)
      Z      Z-component of position vector (km)
      VX     X-component of velocity vector (km/sec)                           
      VY     Y-component of velocity vector (km/sec)                           
      VZ     Z-component of velocity vector (km/sec)                           
      LT     One-way down-leg Newtonian light-time (sec)
      RG     Range; distance from coordinate center (km)
      RR     Range-rate; radial velocity wrt coord. center (km/sec)

ABERRATIONS AND CORRECTIONS

 Geometric state vectors have NO corrections or aberrations applied.

Computations by ...

    Solar System Dynamics Group, Horizons On-Line Ephemeris System
    4800 Oak Grove Drive, Jet Propulsion Laboratory
    Pasadena, CA  91109   USA

    General site: https://ssd.jpl.nasa.gov/
    Mailing list: https://ssd.jpl.nasa.gov/email_list.html
    System news : https://ssd.jpl.nasa.gov/horizons/news.html
    User Guide  : https://ssd.jpl.nasa.gov/horizons/manual.html
    Connect     : browser        https://ssd.jpl.nasa.gov/horizons/app.html#/x
                  API            https://ssd-api.jpl.nasa.gov/doc/horizons.html
                  command-line   telnet ssd.jpl.nasa.gov 6775
                  e-mail/batch   https://ssd.jpl.nasa.gov/ftp/ssd/hrzn_batch.txt
                  scripts        https://ssd.jpl.nasa.gov/ftp/ssd/SCRIPTS
    Author      : Jon.D.Giorgini@jpl.nasa.gov
*******************************************************************************
